{"type": "FeatureCollection", "features": [ {"type": "Feature", "properties": {"norad_id": 29769, "name": "FENGYUN 1C DEB", "group": "fengyun-1c-debris", "lat": -8.801368456455153, "lon": -139.38796959305853, "alt_km": 810.0201253660198, "timestamp": "2025-12-10T18:57:00.336626+00:00", "meta": {"OBJECT_NAME": "FENGYUN 1C DEB", "OBJECT_ID": "1999-025BK", "EPOCH": "2025-12-10T02:46:39.396864", "MEAN_MOTION": 14.13507033, "ECCENTRICITY": 0.00939364, "INCLINATION": 99.1049, "RA_OF_ASC_NODE": 41.3491, "ARG_OF_PERICENTER": 137.7648, "MEAN_ANOMALY": 223.0808, "EPHEMERIS_TYPE": 0, "CLASSIFICATION_TYPE": "U", "NORAD_CAT_ID": 29769, "ELEMENT_SET_NO": 999, "REV_AT_EPOCH": 96644, "BSTAR": 0.0018756759, "MEAN_MOTION_DOT": 3.639e-05, "MEAN_MOTION_DDOT": 0}, "tle": {"line1": "1 29769U 99025BK  25344.11573376  .00003639  00000+0  18757-2 0  9999", "line2": "2 29769  99.1049  41.3491 0093936 137.7648 223.0808 14.13507033966444"}}, "geometry": {"type": "Point", "coordinates": [-139.38796959305853, -8.801368456455153]}}, {"type": "Feature", "properties": {"norad_id": 29770, "name": "FENGYUN 1C DEB", "group": "fengyun-1c-debris", "lat": -69.61229242781664, "lon": 85.13324287260342, "alt_km": 788.1091949462198, "timestamp": "2025-12-10T18:57:00.336651+00:00", "meta": {"OBJECT_NAME": "FENGYUN 1C DEB", "OBJECT_ID": "1999-025BL", "EPOCH": "2025-12-10T04:12:04.955040", "MEAN_MOTION": 14.20089696, "ECCENTRICITY": 0.00625674, "INCLINATION": 98.8461, "RA_OF_ASC_NODE": 59.746, "ARG_OF_PERICENTER": 278.6466, "MEAN_ANOMALY": 109.7732, "EPHEMERIS_TYPE": 0, "CLASSIFICATION_TYPE": "U", "NORAD_CAT_ID": 29770, "ELEMENT_SET_NO": 999, "REV_AT_EPOCH": 97050, "BSTAR": 0.0019967767, "MEAN_MOTION_DOT": 4.295e-05, "MEAN_MOTION_DDOT": 0}, "tle": {"line1": "1 29770U 99025BL  25344.17505735  .00004295  00000+0  19968-2 0  9995", "line2": "2 29770  98.8461  59.7460 0062567 278.6466 109.7732 14.20089696970504"}}, "geometry": {"type": "Point", "coordinates": [85.13324287260342, -69.61229242781664]}}, {"type": "Feature", "properties": {"norad_id": 29772, "name": "FENGYUN 1C DEB", "group": "fengyun-1c-debris", "lat": -32.38246044795016, "lon": -160.48962191940063, "alt_km": 802.8900370685651, "timestamp": "2025-12-10T18:57:00.336664+00:00", "meta": {"OBJECT_NAME": "FENGYUN 1C DEB", "OBJECT_ID": "1999-025BN", "EPOCH": "2025-12-10T07:59:03.938208", "MEAN_MOTION": 14.0319606, "ECCENTRICITY": 0.0138223, "INCLINATION": 98.3886, "RA_OF_ASC_NODE": 193.7194, "ARG_OF_PERICENTER": 297.041, "MEAN_ANOMALY": 242.7077, "EPHEMERIS_TYPE": 0, "CLASSIFICATION_TYPE": "U", "NORAD_CAT_ID": 29772, "ELEMENT_SET_NO": 999, "REV_AT_EPOCH": 96221, "BSTAR": 0.0016568, "MEAN_MOTION_DOT": 2.769e-05, "MEAN_MOTION_DDOT": 0}, "tle": {"line1": "1 29772U 99025BN  25344.33268447  .00002769  00000+0  16568-2 0  9998", "line2": "2 29772  98.3886 193.7194 0138223 297.0410 242.7077 14.03196060962216"}}, "geometry": {"type": "Point", "coordinates": [-160.48962191940063, -32.38246044795016]}}, {"type": "Feature", "properties": {"norad_id": 29773, "name": "FENGYUN 1C DEB", "group": "fengyun-1c-debris", "lat": -22.086841681086156, "lon": -45.345491470282205, "alt_km": 807.4394333725686, "timestamp": "2025-12-10T18:57:00.336674+00:00", "meta": {"OBJECT_NAME": "FENGYUN 1C DEB", "OBJECT_ID": "1999-025BP", "EPOCH": "2025-12-10T09:50:45.085056", "MEAN_MOTION": 14.27563422, "ECCENTRICITY": 0.0046382, "INCLINATION": 98.9874, "RA_OF_ASC_NODE": 137.9467, "ARG_OF_PERICENTER": 297.5162, "MEAN_ANOMALY": 116.8424, "EPHEMERIS_TYPE": 0, "CLASSIFICATION_TYPE": "U", "NORAD_CAT_ID": 29773, "ELEMENT_SET_NO": 999, "REV_AT_EPOCH": 98164, "BSTAR": 0.0005827, "MEAN_MOTION_DOT": 1.403e-05, "MEAN_MOTION_DDOT": 0}, "tle": {"line1": "1 29773U 99025BP  25344.41024404  .00001403  00000+0  58270-3 0  9992", "line2": "2 29773  98.9874 137.9467 0046382 297.5162 116.8424 14.27563422981647"}}, "geometry": {"type": "Point", "coordinates": [-45.345491470282205, -22.086841681086156]}}, {"type": "Feature", "properties": {"norad_id": 29774, "name": "FENGYUN 1C DEB", "group": "fengyun-1c-debris", "lat": -23.71796336913879, "lon": 101.03324332080204, "alt_km": 811.9907967911595, "timestamp": "2025-12-10T18:57:00.336685+00:00", "meta": {"OBJECT_NAME": "FENGYUN 1C DEB", "OBJECT_ID": "1999-025BQ", "EPOCH": "2025-12-10T10:08:40.060896", "MEAN_MOTION": 14.22729532, "ECCENTRICITY": 0.0051025, "INCLINATION": 99.0758, "RA_OF_ASC_NODE": 284.6824, "ARG_OF_PERICENTER": 129.7949, "MEAN_ANOMALY": 355.411, "EPHEMERIS_TYPE": 0, "CLASSIFICATION_TYPE": "U", "NORAD_CAT_ID": 29774, "ELEMENT_SET_NO": 999, "REV_AT_EPOCH": 98042, "BSTAR": 0.00027361, "MEAN_MOTION_DOT": 5.75e-06, "MEAN_MOTION_DDOT": 0}, "tle": {"line1": "1 29774U 99025BQ  25344.42268589  .00000575  00000+0  27361-3 0  9994", "line2": "2 29774  99.0758 284.6824 0051025 129.7949 355.4110 14.22729532980426"}}, "geometry": {"type": "Point", "coordinates": [101.03324332080204, -23.71796336913879]}}, {"type": "Feature", "properties": {"norad_id": 29776, "name": "FENGYUN 1C DEB", "group": "fengyun-1c-debris", "lat": -14.892488869560497, "lon": -170.75431177989537, "alt_km": 869.2078052645256, "timestamp": "2025-12-10T18:57:00.336695+00:00", "meta": {"OBJECT_NAME": "FENGYUN 1C DEB", "OBJECT_ID": "1999-025BS", "EPOCH": "2025-12-10T01:13:37.054848", "MEAN_MOTION": 14.07772747, "ECCENTRICITY": 0.00227995, "INCLINATION": 98.7714, "RA_OF_ASC_NODE": 10.8817, "ARG_OF_PERICENTER": 278.7692, "MEAN_ANOMALY": 136.0051, "EPHEMERIS_TYPE": 0, "CLASSIFICATION_TYPE": "U", "NORAD_CAT_ID": 29776, "ELEMENT_SET_NO": 999, "REV_AT_EPOCH": 97042, "BSTAR": 0.00014669472, "MEAN_MOTION_DOT": 2.06e-06, "MEAN_MOTION_DDOT": 0}, "tle": {"line1": "1 29776U 99025BS  25344.05112332  .00000206  00000+0  14669-3 0  9997", "line2": "2 29776  98.7714  10.8817 0022799 278.7692 136.0051 14.07772747970428"}}, "geometry": {"type": "Point", "coordinates": [-170.75431177989537, -14.892488869560497]}}, {"type": "Feature", "properties": {"norad_id": 29777, "name": "FENGYUN 1C DEB", "group": "fengyun-1c-debris", "lat": -8.476993652651306, "lon": 43.04602724524162, "alt_km": 973.9136288627715, "timestamp": "2025-12-10T18:57:00.336706+00:00", "meta": {"OBJECT_NAME": "FENGYUN 1C DEB", "OBJECT_ID": "1999-025BT", "EPOCH": "2025-12-10T10:27:04.511232", "MEAN_MOTION": 13.92103078, "ECCENTRICITY": 0.0092634, "INCLINATION": 99.2838, "RA_OF_ASC_NODE": 41.2946, "ARG_OF_PERICENTER": 215.9927, "MEAN_ANOMALY": 161.0658, "EPHEMERIS_TYPE": 0, "CLASSIFICATION_TYPE": "U", "NORAD_CAT_ID": 29777, "ELEMENT_SET_NO": 999, "REV_AT_EPOCH": 96009, "BSTAR": 0.00022841, "MEAN_MOTION_DOT": 2.57e-06, "MEAN_MOTION_DDOT": 0}, "tle": {"line1": "1 29777U 99025BT  25344.43546888  .00000257  00000+0  22841-3 0  9994", "line2": "2 29777  99.2838  41.2946 0092634 215.9927 161.0658 13.92103078960093"}}, "geometry": {"type": "Point", "coordinates": [43.04602724524162, -8.476993652651306]}}, {"type": "Feature", "properties": {"norad_id": 29779, "name": "FENGYUN 1C DEB", "group": "fengyun-1c-debris", "lat": 18.429821493616885, "lon": 179.0021626117458, "alt_km": 802.5341823913304, "timestamp": "2025-12-10T18:57:00.336716+00:00", "meta": {"OBJECT_NAME": "FENGYUN 1C DEB", "OBJECT_ID": "1999-025BV", "EPOCH": "2025-12-10T11:23:38.483808", "MEAN_MOTION": 14.13439604, "ECCENTRICITY": 0.0063399, "INCLINATION": 98.6773, "RA_OF_ASC_NODE": 355.7798, "ARG_OF_PERICENTER": 170.5984, "MEAN_ANOMALY": 189.6392, "EPHEMERIS_TYPE": 0, "CLASSIFICATION_TYPE": "U", "NORAD_CAT_ID": 29779, "ELEMENT_SET_NO": 999, "REV_AT_EPOCH": 97380, "BSTAR": 0.00034047, "MEAN_MOTION_DOT": 6.1e-06, "MEAN_MOTION_DDOT": 0}, "tle": {"line1": "1 29779U 99025BV  25344.47475097  .00000610  00000+0  34047-3 0  9997", "line2": "2 29779  98.6773 355.7798 0063399 170.5984 189.6392 14.13439604973804"}}, "geometry": {"type": "Point", "coordinates": [179.0021626117458, 18.429821493616885]}}, {"type": "Feature", "properties": {"norad_id": 29780, "name": "FENGYUN 1C DEB", "group": "fengyun-1c-debris", "lat": -53.78022515994732, "lon": 72.72508233041499, "alt_km": 834.2465263505073, "timestamp": "2025-12-10T18:57:00.336727+00:00", "meta": {"OBJECT_NAME": "FENGYUN 1C DEB", "OBJECT_ID": "1999-025BW", "EPOCH": "2025-12-10T00:57:12.891456", "MEAN_MOTION": 14.21009002, "ECCENTRICITY": 0.00403139, "INCLINATION": 99.2772, "RA_OF_ASC_NODE": 264.8333, "ARG_OF_PERICENTER": 135.9726, "MEAN_ANOMALY": 224.4672, "EPHEMERIS_TYPE": 0, "CLASSIFICATION_TYPE": "U", "NORAD_CAT_ID": 29780, "ELEMENT_SET_NO": 999, "REV_AT_EPOCH": 97040, "BSTAR": 0.0022493982, "MEAN_MOTION_DOT": 4.872e-05, "MEAN_MOTION_DDOT": 0}, "tle": {"line1": "1 29780U 99025BW  25344.03973254  .00004872  00000+0  22494-2 0  9995", "line2": "2 29780  99.2772 264.8333 0040313 135.9726 224.4672 14.21009002970403"}}, "geometry": {"type": "Point", "coordinates": [72.72508233041499, -53.78022515994732]}}, {"type": "Feature", "properties": {"norad_id": 29781, "name": "FENGYUN 1C DEB", "group": "fengyun-1c-debris", "lat": -62.018693416520485, "lon": -4.02938930290304, "alt_km": 907.1792367419321, "timestamp": "2025-12-10T18:57:00.336737+00:00", "meta": {"OBJECT_NAME": "FENGYUN 1C DEB", "OBJECT_ID": "1999-025BX", "EPOCH": "2025-12-10T11:25:57.434016", "MEAN_MOTION": 14.05219039, "ECCENTRICITY": 0.0071749, "INCLINATION": 98.8091, "RA_OF_ASC_NODE": 338.6964, "ARG_OF_PERICENTER": 179.4496, "MEAN_ANOMALY": 332.8675, "EPHEMERIS_TYPE": 0, "CLASSIFICATION_TYPE": "U", "NORAD_CAT_ID": 29781, "ELEMENT_SET_NO": 999, "REV_AT_EPOCH": 96611, "BSTAR": 0.0007862, "MEAN_MOTION_DOT": 1.258e-05, "MEAN_MOTION_DDOT": 0}, "tle": {"line1": "1 29781U 99025BX  25344.47635919  .00001258  00000+0  78620-3 0  9995", "line2": "2 29781  98.8091 338.6964 0071749 179.4496 332.8675 14.05219039966112"}}, "geometry": {"type": "Point", "coordinates": [-4.02938930290304, -62.018693416520485]}}]}